name,address,latitude,longitude
Guangzhou Huangpu Campus,"31 Kefeng Road, Huangpu, Guangzhou, Guangdong Province, China",23.14676,113.4572
CKG1 Chongqing Shi Data Center,"Huixing Telecommunication, 236省道 Huilai, Jieyang, Guangdong, China",22.9655781,116.317563
Shantou Zhuchi IDC Data Center,"China Telecom (Zhuchi Customer Service Center), Longhu Qu, Shantou Shi, Guangdong Sheng, China",23.3724805,116.7358786
Guangdong Dongchong Data Center,"Nansha, Guangzhou, Guangdong, China",22.801624,113.525165
Shenzhen Longgang IDC Data Center,"Longgang Central City, Longgang, Shenzhen, Guangdong, China",22.717947,114.228964
Guangzhou Data Center,"163 Pingyun Road, Tianhe District, Guangzhou, Guangdong Province, China",23.11975,113.35165
Foshan Information Building IDC Data Center,"Foshan Information Building, Chancheng Qu, Foshan Shi, Guangdong Sheng, China",22.9968828,113.1078607
Foshan Data Center,"46 Zumiao Road, Zumiao Temple, Chancheng, Foshan, Guangdong, China",23.027959,113.110838
Changzhou West IDC Data Center,"Bank of Communications (Dongshan Sub-branch), Yuexiu Qu, Guangzhou Shi, Guangdong Sheng, China",23.1244725,113.2829446
Guangzhou Data Center (GZ1),"S China Innovation Park Charging, Kefeng Road, 33, Huangpu, Guangzhou, Guangdong Province, China",23.1498797,113.4597533
GDS SZ3 Data Center,"Hongliu Rd, Futian, Shenzhen, Guangdong, China",22.5057708,114.0507869
Shenzhen Luohu East Gate IDC Data Center,"Postal Savings Bank of China, 电信大厦 Telecom Mansion, Shennan East Road, Ren Min Nan Lu, Luohu Qu, Shenzhen Shi, Guangdong Sheng, China",22.5440256,114.1213842
Yunfu IDC Data Center,"China, Guangdong Province, Yunfu, Yuncheng, 兴云西路90号",22.9306835,112.0331658
Shenzhen Data Center (SZ8),"Changfeng Industrial Park, Liuxian Boulevard, Baoan, Shenzhen, Guangdong Province, China",22.581199,113.926681
Qingyuan Data Integration Data Center,"Qingcheng, Qingyuan, Guangdong, China",23.697898,113.062692
Foshan Shunde IDC Data Center,"Shunde Qu, Foshan Shi, Guangdong, China",22.80524,113.293359
Shenzhen High-Tech Zone IDC Data Center,"Software Building, Gaoxin Middle 1st Road, Nanshan Qu, Shenzhen Shi, Guangdong Sheng, China",22.5492809,113.9411954
Guangzhou Data Center (GZ3),"S China Innovation Park Charging, Kefeng Road, 33, Huangpu, Guangzhou, Guangdong Province, China",23.1498797,113.4597533
Qixinggang IDC Data Center,"China Telecom, Shiliugang Road, Haizhu Qu, Guangzhou Shi, Guangdong Sheng, China",23.0817196,113.3468267
GDS SZ4 Data Center,"Caiyun Rd, Long Gang Zhong Xin Cheng, Longgang, Shenzhen, Guangdong, China",22.7035446,114.2466493
Shaoguan Xinhua North IDC Data Center,"Xinhua N Rd, Wujiang, Shaoguan, Guangdong, China",24.8037768,113.5883864
Shenzhen Runxun Qianhai Data Center,"Bao'an, Shenzhen, Guangdong, China",22.555259,113.884019
Guangdong Telecom Building IDC Data Center,"Hui Xue Lu, Nan Tou, Nanshan Qu, Shenzhen Shi, Guangdong Sheng, China",22.5334577,113.9262271
Foshan Qinren IDC Data Center,"Qin Ren Lu, Zu Miao, Chancheng Qu, Foshan Shi, Guangdong Sheng, China",23.0349268,113.1072135
CAN5 Guangzhou Data Center,"China, Guangdong Province, Guangzhou, Huangpu, Kefeng Road, 华南新材料创新园",23.1518189,113.4625765
Zhaoqing IDC Data Center,"Shigouzhen, Sihui, Zhaoqing, Guangdong, China",23.371822,112.586445
Yangjiang IDC Data Center,"168 Dongfeng 3rd Rd, Yangdong District, Yangjiang, Guangdong Province, China, 529566",21.8664239,111.9966658
Shenzhen Fuyong IDC Data Center,"315-1 Qiaohe Rd, Baoan Qu, Shenzhen Shi, Guangdong Sheng, China, 518125",22.6878046,113.7972466
Guangdong Zhongneng Data Center,"Huangpu, Guangzhou, Guangdong, China",23.106401,113.459749
Foshan Sanshui IDC Data Center,"Sanshui, Foshan, Guangdong, China",23.156045,112.896606
Guangzhou Shiji Aircraft Building IDC Data Center,"Jinlong Rd, Panyu, Guangzhou, Guangdong, China",22.9725233,113.4284494
Guangdong Telecom Maoming Data Center,"Maonan, Maoming, Guangdong, China",21.641337,110.918026
Guangzhou Huadiwan IDC Data Center,"China Telecom, China Telecom (Huadiwan Office), Huadi Middle Avenue, Liwan Qu, Guangzhou Shi, Guangdong Sheng, China",23.0811918,113.2346346
Shenzhen Data Center (SZ5),"Dongchang Road, Dongchang Road, 宝安区 Shenzhen, Guangdong Province, China, 518107",22.739344,113.915198
Guangzhou People's Middle Road IDC Data Center,"Zhongyu Telecom (Renmin Middle Road), Chang Di Lu Gou Wu Xiu Xian Jie, Yuexiu Qu, Guangzhou Shi, Guangdong Sheng, China",23.1167019,113.253449
Guangdong Nanshayungu Data Center,"Mei De Er Lu, Nansha Qu, Guangzhou Shi, Guangdong Sheng, China",22.7221124,113.5336523
Guangzhou Cloud-computing Data Center,"Jiafu Hotel, Xinjiao West Road, Haizhu Qu, Guangzhou Shi, Guangdong Sheng, China",23.0728674,113.2841097
Guangzhou Data Center (GZ4),"Meide 2nd Road, Meideer Road, Nansha District, Guangzhou, Guangdong Province, China, 511462",22.721764,113.533343
Jiangmen Data Center,"2 Huanshi 1st Rd, Pengjiang, Jiangmen, Guangdong, China",22.592634,113.078404
Guangdong Huizhou Longhu Data Center,"Long Hu Da Dao, Huicheng Qu, Huizhou Shi, Guangdong Sheng, China",23.1445396,114.5152091
Dongguan Dalang IDC Data Center,"1 Meijing Middle Rd, Dongguan Shi, Guangdong Sheng, China, 523455",22.9219358,113.9192643
CAN1 Guandong Sheng Data Center,"1 Tian Yuan Lu, Tianhe, Guangzhou Shi, Guangdong, China",23.193611,113.36899
Shenzhen Hongbo IDC Data Center,"10 Honghu 1st St, Luohu Qu, Shenzhen Shi, Guangdong Sheng, China, 518001",22.557676,114.1229723
CAN8 Guangzhou Data Center,"Nanxiang Yun Data Center, Nanxiangsan Road, Huangpu, Guangzhou, Guangdong Province, China",23.14892,113.44306
Guangdong West District IDC Center,"Longhu, Shantou, Guangdong, China",23.372254,116.716446
Guangzhou Nansha Campus,"Meide 2nd Road, Meideer Road, Nansha District, Guangzhou, Guangdong Province, China, 511462",22.721764,113.533343
Shenzhen Data Center,"China Steel Building Parking Lot, Zhonggang Science & Technology Parks (Kewen Road), Gaoxin Middle 4th Road, Nanshan Qu, Shenzhen Shi, Guangdong Sheng, China",22.541752,113.9397108
Dongguan Zhangmutou IDC Data Center,"Zhangmutouzhen, Dongguan, Guangdong, China",22.914909,114.083278
Foshan Century Interconnect IDC Data Center,"China Telecom, China Telecom (Ping Chau Office), Nangang Road, Nanhai Qu, Foshan Shi, Guangdong Sheng, China",23.0362321,113.1948363
Chaozhou Hub Building Data Center,"China, Guangdong, Chaozhou, Xiangqiao, 潮枫路",23.6610794,116.6259245
Guangdong Keyun Data Center,"Huan Ling Lu, Huangpu Qu, Guangzhou Shi, Guangdong Sheng, China",23.2099097,113.5393183
GDS Chengdu Data Center,"Futian, Shenzhen, Guangdong, China",22.521523,114.055023
Guangzhou Tianhe Aircraft Building IDC Data Center,"Guang Zhou Qu Chen Shi Shi Pin Yin Liao You Xian Gong Si Guang Zhou Zheng Liu Shui Jing Ying Bu, Everbright Bank Mansion (Tianhe North Road), Tianhe North Road, Tian He Gong Yuan, Tianhe Qu, Guangzhou, Guangdong Sheng, China",23.1417341,113.3418343
Guangzhou Data Center (GZ5),"Meide 2nd Road, Meideer Road, Nansha District, Guangzhou, Guangdong Province, China, 511462",22.721764,113.533343
CAN1 | Guangzhou,"Luo Kan, Huangpu, Guangzhou, Guangdong Province, China",23.16904,113.51667
Guangdong Huizhou Dongping IDC Data Center,"China Telecom, JEANSWEST (Zhongshan West Road), Huizhou Commercial Pedestrian Street, Huicheng Qu, Huizhou Shi, Guangdong Sheng, China",23.0929374,114.4060175
ZUH1 Zhuhai Data Center,"Jiuzhou Middle Avenue, 九洲大道中 Xiangzhou, Zhuhai, Guangdong Province, China, 519020",22.241723,113.561866
Shantou Yuedong IDC Data Center,"Shan Tou Shi Shang Biao Shi Wu Suo, Hanjiang Building, Longhu Qu, Shantou, Guangdong Sheng, China",23.361818,116.728268
CAN1 Guangzhou Data Center,"Tian Yuan Lu, Tianyuan Road, Tianhe District, Guangzhou, Guangdong Province, China",23.183098,113.357869
Guangzhou Accelerator Data Center,"Huangpu, Guangzhou, Guangdong, China",23.106401,113.459749
FUO1 Guangdong Sheng Data Center,"Foshan, Guangdong, China",23.021478,113.121435
Foshan Kepler Data Center,"Lang Bao Xi Lu, Chancheng District, Foshan, Guangdong Province, China",23.0381908,113.0562404
Shiji IDC Data Center,"Jinlong Rd, Panyu, Guangzhou, Guangdong, China",22.9725233,113.4284494
Zhongshan Huoju Cloud Data Center,"Zhongshan, Guangdong, China",22.517585,113.39277
Shenzhen Data Center (SZ4),"Qishi Road, Qishi Road, Pingshan District, Shenzhen, Guangdong Province, China, 518118",22.709527,114.370327
Zhanjiang Tunxi Data Center,"Leshan Rd, Chikan District, Zhanjiang, Guangdong Province, China",21.240597,110.4071963
Foshan Guijiang IDC Data Center,"21 Nanhai Ave N, Bao Li Shui Cheng, Nanhai Qu, Foshan Shi, Guangdong Sheng, China, 528226",23.0480325,113.1402741
Shenzhen Information Hub Data Center,"Xinxi Shuniu Mansion, Futian CBD, Futian Qu, Shenzhen Shi, Guangdong Sheng, China",22.5352098,114.0553976
Dongguan City IDC Data Center,"Dongguan, Guangdong, China",23.020673,113.751799
Shenzhen Futian Data Center,"Futian Free Trade Zone, Honghua Road, Futian District, Shenzhen, Guangdong Province, China",22.507865,114.057036
Guangzhou Data Center (GZ6),"Administration Committee of Guangdong Zengcheng Industrial Park, Qunxian Road, 增城市 Guangzhou, Guangdong Province, China",23.120604,113.608304
Guangdong Zhuhai IDC Data Center,"199 Jinfeng Middle Rd, Xiangzhou, Zhuhai, Guangdong, China, 519085",22.3803187,113.5426834
Meizhou Telecom Hub Building Data Center,"Meijiang, Meizhou, Guangdong, China",24.31049,116.116695
Shahe IDC Data Center,"Nanshan, Shenzhen, Guangdong, China",22.533012,113.930475
Jieyang Jidong Data Center,"Rongcheng, Jieyang, Guangdong, China",23.52519,116.367021
Zhuhai Xiangzhou IDC Data Center,"Zi Jing Lu She Qu, Zijing Road, Xiangzhou, Zhuhai, Guangdong Province, China",22.282733,113.564863
Guangzhou Data Center (GZ2),"S China Innovation Park Charging, Kefeng Road, 33, Huangpu, Guangzhou, Guangdong Province, China",23.1498797,113.4597533
Guangzhou Data Center,"Rui Fa Lu, Huangpu Qu, Guangzhou Shi, Guangdong Sheng, China",23.1570165,113.5002328
Shanwei Data Center,"China, Guangdong, Shanwei, 城区城区政府园林宿舍区",22.773486,115.366198
Shenzhen Gaoke Building IDC Data Center,"China Gaoke Building, Nanshan Qu, Shenzhen Shi, Guangdong Sheng, China",22.5070263,113.8983482
