name,address,latitude,longitude
Equinix: SH3 Pudong New Area Data Center,N/A,,
Microsoft Azure: China East 2-Shanghai,N/A,,
China Telecom: Shanghai Beiai IDC Data Center,N/A,,
Equinix: SH2 Pudong New Area Data Center,N/A,,
Telehouse: Shanghai Jinqiao Data Center,N/A,,
China Telecom: Shanghai Hulan IDC Data Center,N/A,,
Zenlayer: SHA5 Shanghai Data Center,N/A,,
China Telecom: Nanhui IDC Data Center,N/A,,
China Telecom: Shanghai Quanhua IDC Data Center,N/A,,
China Telecom: Shanghai Huajing IDC Data Center,N/A,,
China Telecom: Shanghai Zhenru IDC Data Center,N/A,,
China Telecom: Shanghai Telecom Quiqiao Data Center,N/A,,
China Telecom: Shanghai Haining Data Center,N/A,,
China Telecom: Shanghai Jianan Data Center,N/A,,
China Telecom: Shanghai North IDC Data Center,N/A,,
Microsoft Azure: China East-Shanghai,N/A,,
China Telecom: Shanghai Lujiazui IDC Data Center,N/A,,
China Telecom: Shanghai Guoding IDC Data Center,N/A,,
China Telecom: Shanghai Ouyang Data Center,N/A,,
China Telecom: Shanghai Hotline Information Building Data Center,N/A,,
China Telecom: Shanghai New Taopu IDC Data Center,N/A,,
China Telecom: Shanghai Telecom Caoxi Data Center,N/A,,
China Telecom: Shanghai Tongpu IDC Data Center,N/A,,
Equinix: SH6 Shanghai Data Center,N/A,,
China Telecom: Shanghai Hotline Zhangjiang Data Center,N/A,,
China Telecom: Shanghai Zhangdong IDC Data Center,N/A,,
China Telecom: Shanghai Fuhua IDC Data Center,N/A,,
China Telecom: Shanghai Jiyun IDC Data Center,N/A,,
Rackspace: SHA3 Shanghai Data Center,N/A,,
China Telecom: Wenchuan Data Center,N/A,,
Zenlayer: SHA2 Shanghai Data Center,N/A,,
China Telecom: Shanghai Data Center,N/A,,
China Telecom: Shanghai Huma IDC Data Center,N/A,,
China Telecom: Shanghai Telecom Guoli Data Center,N/A,,
China Telecom: Shanghai Jinhai IDC Data Center,N/A,,
Zenlayer: SHA3 Shanghai Data Center,N/A,,
China Telecom: Shanghai Yunlian IDC Data Center,N/A,,
China Telecom: Shanghai Hengbin IDC Data Center,N/A,,
Equinix: SH5 Yangpu District Data Center,N/A,,
China Telecom: Information Park Data Center,N/A,,
China Telecom: SH5 Data Center,N/A,,
Zenlayer: XIY2 Xi'an Data Center,N/A,,
China Telecom: Shanghai Wusheng IDC Data Center,N/A,,
Equinix: SH1 Pudong New Area Data Center,N/A,,
"China Telecom: GDS SH3, SH4 Data Center",N/A,,
China Telecom: SH2 Data Center,N/A,,
China Telecom: Shanghai Xingshun Data Center,N/A,,
China Telecom: Shanghai Guilin IDC Data Center,N/A,,
China Telecom: Shanghai Shenjia Lane IDC Data Center,N/A,,
China Telecom: Shanghai Qinzhou IDC Data Center,N/A,,
China Telecom: Shanghai Changxin Caobao Road Data Center,N/A,,
China Telecom: Shanghai Nanwaitan Data Center,N/A,,
China Telecom: Shanghai Waigaoqiao Data Center,N/A,,
China Telecom: Shanghai East Gate IDC Data Center,N/A,,
